CCSDS_OEM_VERS = 2.0  
CREATION_DATE  = 2026-02-27T09:26:36
ORIGINATOR     = ESOC/OPS-GFA                            
 
 



META_START
OBJECT_NAME          = LISA                                    
OBJECT_ID            = -1000                                   
CENTER_NAME          = SUN                     
REF_FRAME            = EME2000 
TIME_SYSTEM          = TCB
START_TIME           = 2036-12-23T00:00:30.346418            
STOP_TIME            = 2047-09-08T10:42:58.708276            
INTERPOLATION        = HERMITE                                 
INTERPOLATION_DEGREE = 7                                       
META_STOP

2042-10-06T15:08:34.804347     1.49294106384735376e+08   -1.54155976120340787e+07   -5.81947858695527539e+06    3.14262704258748693e+00    2.71548221709304300e+01    1.15622721149928775e+01   -5.84725907511875211e-06    6.03990068665391634e-07    2.27999879394573002e-07
2042-10-07T11:22:03.544309     1.49507410139542341e+08   -1.34369567053724937e+07   -4.97706891813930869e+06    2.71654943080338329e+00    2.71959807412131056e+01    1.15776728988545674e+01   -5.85656468737936433e-06    5.26580579316786117e-07    1.95038752269004910e-07
2042-10-08T07:35:32.284273     1.49689668076230645e+08   -1.14555244031428751e+07   -4.13362535316351522e+06    2.28983804838956306e+00    2.72314982605406115e+01    1.15906719296495169e+01   -5.86466783947503117e-06    4.49037338040975306e-07    1.62026677331298692e-07
2042-10-09T03:49:01.024237     1.49840837248394758e+08   -9.47171176176010445e+06   -3.28932288886728976e+06    1.86258053540889001e+00    2.72613655581917627e+01    1.16012657396316587e+01   -5.87156608533469611e-06    3.71375943469051570e-07    1.28970296848639806e-07
2042-10-10T00:02:29.764201     1.49960881117526710e+08   -7.48593045847130381e+06   -2.44433675451637525e+06    1.43486470147707434e+00    2.72855746007654112e+01    1.16094513453081731e+01   -5.87725721478769961e-06    2.93612038002705557e-07    9.58762705046099036e-08
2042-10-10T20:15:58.504164     1.50049769550785065e+08   -5.49859271238227561e+06   -1.59884237824482005e+06    1.00677850836309801e+00    2.73041184953025891e+01    1.16152262486808802e+01   -5.88173925905609577e-06    2.15761305965132544e-07    6.27512746392846755e-08
2042-10-11T16:29:27.244128     1.50107478814611465e+08   -3.51011120610050485e+06   -7.53015353779323399e+05    5.78410052334978886e-01    2.73169914922584702e+01    1.16185884384263396e+01   -5.88501049225168475e-06    1.37839471325156237e-07    2.96020013256350333e-08
2042-10-12T12:42:55.984092     1.50133991569424093e+08   -1.52089900644293055e+06    9.29685932396557182e+04    1.49847546540192056e-01    2.73241889882933151e+01    1.16195363910028195e+01   -5.88706942892853911e-06    5.98622949989248853e-08   -3.56484271616606127e-09
2042-10-13T08:56:24.724056     1.50129296870618641e+08    4.68630517344392836e+05    9.38933640025202185e+05   -2.78820696290001280e-01    2.73257075288513818e+01    1.16180690716722630e+01   -5.88791481764876864e-06   -1.81544282722312929e-08   -3.67425373669428865e-08
2042-10-14T05:09:53.464019     1.50093390181105614e+08    2.45806377940699458e+06    1.78470390318514220e+06   -7.07506280523054976e-01    2.73215448104969951e+01    1.16141859354253967e+01   -5.88754563054183733e-06   -9.61948734754118774e-08   -6.99243505223290976e-08
2042-10-15T01:23:22.203983     1.50026273400614500e+08    4.44698706869547814e+06    2.63010347772273049e+06   -1.13612074340519786e+00    2.73116996829767871e+01    1.16078869277981340e+01   -5.88596104897736951e-06   -1.74243189291713308e-07   -1.03103539664523701e-07
2042-10-15T21:36:50.943947     1.49927954916994601e+08    6.43498664752434194e+06    3.47495647918174602e+06   -1.56457556964977496e+00    2.72961721509772168e+01    1.15991724855673883e+01   -5.88316044518498293e-06   -2.52283502496807301e-07   -1.36273353600972446e-07
2042-10-16T17:50:19.683910     1.49798449684741646e+08    8.42164885882838443e+06    4.31908708962206170e+06   -1.99278220454460975e+00    2.72749633755464913e+01    1.15880435373144692e+01   -5.87914335987036152e-06   -3.30299922791100259e-07   -1.69427034367878257e-07
2042-10-17T13:56:25.971431     1.49638849503081024e+08    1.03945041253442410e+07    5.15719837764301896e+06   -2.41805315028256196e+00    2.72482562146754361e+01    1.15745910820079292e+01   -5.87394553510126988e-06   -4.07802793762480642e-07   -2.02356551244341585e-07
2042-10-18T10:02:32.258952     1.49448488715856940e+08    1.23652238052723259e+07    5.99424996313261148e+06   -2.84290446966490196e+00    2.72159423549470212e+01    1.15587566595577815e+01   -5.86754613491423485e-06   -4.85250654805257783e-07   -2.35256778170246782e-07
2042-10-19T06:08:38.546472     1.49227400859346330e+08    1.43334023375814408e+07    6.83006956192565709e+06   -3.26724922503827120e+00    2.71780263434804574e+01    1.15405426302546488e+01   -5.85994562827048931e-06   -5.62627852813912735e-07   -2.68121061923088650e-07
2042-10-20T02:14:44.833993     1.48975625709821910e+08    1.62986345021088384e+07    7.66448506542610470e+06   -3.69100051940974039e+00    2.71345138608170409e+01    1.15199518361166273e+01   -5.85114467375696574e-06   -6.39918717349864451e-07   -3.00942742606680030e-07
2042-10-20T22:20:51.121514     1.48693209323847950e+08    1.82605155261571407e+07    8.49732458613506891e+06   -4.11407151092847378e+00    2.70854117219539248e+01    1.14969876012732932e+01   -5.84114413980064857e-06   -7.17107566645433182e-07   -3.33715156342440813e-07
2042-10-21T18:26:57.409035     1.48380204056570143e+08    2.02186411795108058e+07    9.32841649814545177e+06   -4.53637542868415000e+00    2.70307278769638764e+01    1.14716537321645085e+01   -5.82994512095837549e-06   -7.94178713039272284e-07   -3.66431637695568728e-07
2042-10-22T14:33:03.696555     1.48036668562548012e+08    2.21726078604272790e+07    1.01575894737122804e+07   -4.95782558954241726e+00    2.69704714112421833e+01    1.14439545175732267e+01   -5.81754895028923602e-06   -8.71116467845436743e-07   -3.99085521837062219e-07
2042-10-23T10:39:09.984076     1.47662667783676624e+08    2.41220126751390398e+07    1.09846725169999339e+07   -5.37833541573359142e+00    2.69046525454217402e+01    1.14138947285113996e+01   -5.80395720779702171e-06   -9.47905145654667622e-07   -4.31670146440932477e-07
2042-10-24T06:45:16.271596     1.47258272928744674e+08    2.60664535134030357e+07    1.18094949961073734e+07   -5.79781845291079456e+00    2.68332826349973459e+01    1.13814796179781510e+01   -5.78917172496511094e-06   -1.02452906807041161e-06   -4.64178853317760479e-07
2042-10-25T02:51:22.559117     1.46823561449176133e+08    2.80055291226335056e+07    1.26318866744726859e+07   -6.21618838839373211e+00    2.67563741697001980e+01    1.13467149206093278e+01   -5.77319458534722188e-06   -1.10097256687538074e-06   -4.96604989782682721e-07
2042-10-25T22:57:28.846638     1.46358617015502632e+08    2.99388391831547767e+07    1.34516777427578531e+07   -6.63335906931434671e+00    2.66739407726636415e+01    1.13096068522375592e+01   -5.75602812126523426e-06   -1.17721998663524973e-06   -5.28941909760813583e-07
2042-10-26T19:03:35.134159     1.45863529499113470e+08    3.18659843871103004e+07    1.42686988523151595e+07   -7.04924452038051008e+00    2.65859971994211612e+01    1.12701621093819799e+01   -5.73767490657145963e-06   -1.25325568673187194e-06   -5.61182974626673609e-07
2042-10-27T15:09:41.421679     1.45338394963830441e+08    3.37865665235639289e+07    1.50827811513362061e+07   -7.46375896097397895e+00    2.64925593367776528e+01    1.12283878686867133e+01   -5.71813774545566938e-06   -1.32906404282937413e-06   -5.93321553778987764e-07
2042-10-28T11:15:47.709200     1.44783315671854466e+08    3.57001885723302886e+07    1.58937563247848731e+07   -7.87681682129884742e+00    2.63936442015949986e+01    1.11842917863272682e+01   -5.69741965741740123e-06   -1.40462944777924305e-06   -6.25351024953981743e-07
2042-10-29T07:21:53.996720     1.44198400108631343e+08    3.76064548090698719e+07    1.67014566392151918e+07   -8.28833275729663477e+00    2.62892699395329679e+01    1.11378819974039907e+01   -5.67552385823643237e-06   -1.47993631195206833e-06   -6.57264774271159020e-07
2042-10-30T03:28:00.284241     1.43583763031183541e+08    3.95049709241858721e+07    1.75057149935754128e+07   -8.69822166404429709e+00    2.61794558237864123e+01    1.10891671153416667e+01   -5.65245373698973723e-06   -1.55496906300067704e-06   -6.89056196013792577e-07
2042-10-30T23:34:53.433674     1.42939098553487033e+08    4.13965654211849943e+07    1.83068821785625257e+07   -9.10666245375736239e+00    2.60641458786484463e+01    1.10381224553554222e+01   -5.62819731869329602e-06   -1.62976052620951953e-06   -7.20739188402118198e-07
2042-10-31T19:41:46.583107     1.42264922223691612e+08    4.32796141415472478e+07    1.91042701115019843e+07   -9.51330444608031733e+00    2.59434310174843326e+01    1.09847884024209979e+01   -5.60277293001951714e-06   -1.70424644775327567e-06   -7.52286519228328313e-07
2042-11-01T15:48:39.732540     1.41561367375925124e+08    4.51537265351692140e+07    1.98977133812249675e+07   -9.91806322019776410e+00    2.58173339253131608e+01    1.09291750175082676e+01   -5.57618489952789342e-06   -1.77841136949882749e-06   -7.83691636056387993e-07
2042-11-02T11:55:32.881971     1.40828573403770417e+08    4.70185136953015924e+07    2.06870473051269688e+07   -1.03208546757647337e+01    2.56858784057897935e+01    1.08712928357213414e+01   -5.54843775330048933e-06   -1.85223985552647891e-06   -8.14947996885038956e-07
2042-11-03T08:02:26.031404     1.40066685773732454e+08    4.88735884733494669e+07    2.14721079780529067e+07   -1.07215950479001734e+01    2.55490893792092564e+01    1.08111528653749147e+01   -5.51953623327902863e-06   -1.92571650256500356e-06   -8.46049074676906974e-07
